ONEWEB-0228             
1 48780U 21045P   24129.52874455  .00000036  00000+0  60498-4 0  9996
2 48780  87.9047  52.3385 0001861  83.3709 276.7633 13.15550747143130
